{"type": "FeatureCollection", "features": [ {"type": "Feature", "properties": {"norad_id": 54234, "name": "NOAA 21 (JPSS-2)", "group": "weather", "lat": -36.98245806308627, "lon": -67.5835357060038, "alt_km": 832.7353519078151, "timestamp": "2025-12-15T11:38:36.800765+00:00", "meta": {"OBJECT_NAME": "NOAA 21 (JPSS-2)", "OBJECT_ID": "2022-150A", "EPOCH": "2025-12-14T22:17:11.445216", "MEAN_MOTION": 14.19524908, "ECCENTRICITY": 0.00021352, "INCLINATION": 98.7463, "RA_OF_ASC_NODE": 285.2095, "ARG_OF_PERICENTER": 33.8959, "MEAN_ANOMALY": 326.2353, "EPHEMERIS_TYPE": 0, "CLASSIFICATION_TYPE": "U", "NORAD_CAT_ID": 54234, "ELEMENT_SET_NO": 999, "REV_AT_EPOCH": 16040, "BSTAR": 6.7240246e-05, "MEAN_MOTION_DOT": 9.8e-07, "MEAN_MOTION_DDOT": 0}, "tle": {"line1": "1 54234U 22150A   25348.92860469  .00000098  00000+0  67240-4 0  9993", "line2": "2 54234  98.7463 285.2095 0002135  33.8959 326.2353 14.19524908160404"}}, "geometry": {"type": "Point", "coordinates": [-67.5835357060038, -36.98245806308627]}}, {"type": "Feature", "properties": {"norad_id": 54743, "name": "METEOSAT-12 (MTG-I1)", "group": "weather", "lat": -0.5850201496551971, "lon": -101.24962029422556, "alt_km": 35779.96039176912, "timestamp": "2025-12-15T11:38:36.800776+00:00", "meta": {"OBJECT_NAME": "METEOSAT-12 (MTG-I1)", "OBJECT_ID": "2022-170C", "EPOCH": "2025-12-14T22:09:38.644416", "MEAN_MOTION": 1.00269613, "ECCENTRICITY": 0.00016058, "INCLINATION": 0.6893, "RA_OF_ASC_NODE": 23.9928, "ARG_OF_PERICENTER": 238.5832, "MEAN_ANOMALY": 153.396, "EPHEMERIS_TYPE": 0, "CLASSIFICATION_TYPE": "U", "NORAD_CAT_ID": 54743, "ELEMENT_SET_NO": 999, "REV_AT_EPOCH": 1113, "BSTAR": 0, "MEAN_MOTION_DOT": 1.2e-07, "MEAN_MOTION_DDOT": 0}, "tle": {"line1": "1 54743U 22170C   25348.92336394  .00000012  00000+0  00000+0 0  9997", "line2": "2 54743   0.6893  23.9928 0001605 238.5832 153.3960  1.00269613 11138"}}, "geometry": {"type": "Point", "coordinates": [-101.24962029422556, -0.5850201496551971]}}, {"type": "Feature", "properties": {"norad_id": 55973, "name": "TIANMU-1 03", "group": "weather", "lat": 6.463946359694236, "lon": 151.35646493558568, "alt_km": 443.30450373387794, "timestamp": "2025-12-15T11:38:36.800787+00:00", "meta": {"OBJECT_NAME": "TIANMU-1 03", "OBJECT_ID": "2023-039A", "EPOCH": "2025-12-14T21:35:21.912288", "MEAN_MOTION": 15.40996089, "ECCENTRICITY": 0.00043253, "INCLINATION": 97.5104, "RA_OF_ASC_NODE": 151.6111, "ARG_OF_PERICENTER": 54.7926, "MEAN_ANOMALY": 305.3725, "EPHEMERIS_TYPE": 0, "CLASSIFICATION_TYPE": "U", "NORAD_CAT_ID": 55973, "ELEMENT_SET_NO": 999, "REV_AT_EPOCH": 15239, "BSTAR": 0.00032130694, "MEAN_MOTION_DOT": 0.0001317, "MEAN_MOTION_DDOT": 0}, "tle": {"line1": "1 55973U 23039A   25348.89955917  .00013170  00000+0  32131-3 0  9995", "line2": "2 55973  97.5104 151.6111 0004325  54.7926 305.3725 15.40996089152396"}}, "geometry": {"type": "Point", "coordinates": [151.35646493558568, 6.463946359694236]}}, {"type": "Feature", "properties": {"norad_id": 55974, "name": "TIANMU-1 04", "group": "weather", "lat": 55.19048527150816, "lon": -17.668836740611695, "alt_km": 436.13432275096056, "timestamp": "2025-12-15T11:38:36.800842+00:00", "meta": {"OBJECT_NAME": "TIANMU-1 04", "OBJECT_ID": "2023-039B", "EPOCH": "2025-12-14T22:38:34.590624", "MEAN_MOTION": 15.41333569, "ECCENTRICITY": 0.00049878, "INCLINATION": 97.5035, "RA_OF_ASC_NODE": 150.8464, "ARG_OF_PERICENTER": 49.599, "MEAN_ANOMALY": 310.5691, "EPHEMERIS_TYPE": 0, "CLASSIFICATION_TYPE": "U", "NORAD_CAT_ID": 55974, "ELEMENT_SET_NO": 999, "REV_AT_EPOCH": 15240, "BSTAR": 0.00027948992, "MEAN_MOTION_DOT": 0.00011572, "MEAN_MOTION_DDOT": 0}, "tle": {"line1": "1 55974U 23039B   25348.94345591  .00011572  00000+0  27949-3 0  9998", "line2": "2 55974  97.5035 150.8464 0004987  49.5990 310.5691 15.41333569152400"}}, "geometry": {"type": "Point", "coordinates": [-17.668836740611695, 55.19048527150816]}}, {"type": "Feature", "properties": {"norad_id": 55975, "name": "TIANMU-1 05", "group": "weather", "lat": 27.470265492582406, "lon": -24.17269049596697, "alt_km": 441.8328984467007, "timestamp": "2025-12-15T11:38:36.800855+00:00", "meta": {"OBJECT_NAME": "TIANMU-1 05", "OBJECT_ID": "2023-039C", "EPOCH": "2025-12-14T22:31:04.442304", "MEAN_MOTION": 15.40953066, "ECCENTRICITY": 0.00043046, "INCLINATION": 97.5082, "RA_OF_ASC_NODE": 151.3335, "ARG_OF_PERICENTER": 72.0154, "MEAN_ANOMALY": 288.1561, "EPHEMERIS_TYPE": 0, "CLASSIFICATION_TYPE": "U", "NORAD_CAT_ID": 55975, "ELEMENT_SET_NO": 999, "REV_AT_EPOCH": 15238, "BSTAR": 0.00028678417, "MEAN_MOTION_DOT": 0.00011726, "MEAN_MOTION_DDOT": 0}, "tle": {"line1": "1 55975U 23039C   25348.93824586  .00011726  00000+0  28678-3 0  9995", "line2": "2 55975  97.5082 151.3335 0004304  72.0154 288.1561 15.40953066152384"}}, "geometry": {"type": "Point", "coordinates": [-24.17269049596697, 27.470265492582406]}}, {"type": "Feature", "properties": {"norad_id": 55976, "name": "TIANMU-1 06", "group": "weather", "lat": 66.32996115584996, "lon": -10.12384160797619, "alt_km": 433.4099138146039, "timestamp": "2025-12-15T11:38:36.800866+00:00", "meta": {"OBJECT_NAME": "TIANMU-1 06", "OBJECT_ID": "2023-039D", "EPOCH": "2025-12-14T22:41:36.090240", "MEAN_MOTION": 15.41385734, "ECCENTRICITY": 0.00046165, "INCLINATION": 97.5093, "RA_OF_ASC_NODE": 151.8079, "ARG_OF_PERICENTER": 66.992, "MEAN_ANOMALY": 293.1813, "EPHEMERIS_TYPE": 0, "CLASSIFICATION_TYPE": "U", "NORAD_CAT_ID": 55976, "ELEMENT_SET_NO": 999, "REV_AT_EPOCH": 15240, "BSTAR": 0.00028149824, "MEAN_MOTION_DOT": 0.00011676, "MEAN_MOTION_DDOT": 0}, "tle": {"line1": "1 55976U 23039D   25348.94555660  .00011676  00000+0  28150-3 0  9990", "line2": "2 55976  97.5093 151.8079 0004616  66.9920 293.1813 15.41385734152407"}}, "geometry": {"type": "Point", "coordinates": [-10.12384160797619, 66.32996115584996]}}, {"type": "Feature", "properties": {"norad_id": 56232, "name": "FENGYUN 3G", "group": "weather", "lat": -18.57117609245036, "lon": -163.10560790382854, "alt_km": 414.4651863725039, "timestamp": "2025-12-15T11:38:36.800877+00:00", "meta": {"OBJECT_NAME": "FENGYUN 3G", "OBJECT_ID": "2023-055A", "EPOCH": "2025-12-14T21:51:30.526272", "MEAN_MOTION": 15.53795796, "ECCENTRICITY": 0.00093249, "INCLINATION": 49.9933, "RA_OF_ASC_NODE": 216.2516, "ARG_OF_PERICENTER": 158.5389, "MEAN_ANOMALY": 201.5971, "EPHEMERIS_TYPE": 0, "CLASSIFICATION_TYPE": "U", "NORAD_CAT_ID": 56232, "ELEMENT_SET_NO": 999, "REV_AT_EPOCH": 15136, "BSTAR": 0.00042540795, "MEAN_MOTION_DOT": 0.00027529, "MEAN_MOTION_DDOT": 0}, "tle": {"line1": "1 56232U 23055A   25348.91076998  .00027529  00000+0  42541-3 0  9997", "line2": "2 56232  49.9933 216.2516 0009324 158.5389 201.5971 15.53795796151365"}}, "geometry": {"type": "Point", "coordinates": [-163.10560790382854, -18.57117609245036]}}, {"type": "Feature", "properties": {"norad_id": 57166, "name": "METEOR-M2 3", "group": "weather", "lat": -80.65861249846854, "lon": 110.50177254778819, "alt_km": 818.9742839232249, "timestamp": "2025-12-15T11:38:36.800887+00:00", "meta": {"OBJECT_NAME": "METEOR-M2 3", "OBJECT_ID": "2023-091A", "EPOCH": "2025-12-14T22:33:29.695392", "MEAN_MOTION": 14.24026286, "ECCENTRICITY": 0.00037827, "INCLINATION": 98.6376, "RA_OF_ASC_NODE": 42.4408, "ARG_OF_PERICENTER": 2.5521, "MEAN_ANOMALY": 357.5677, "EPHEMERIS_TYPE": 0, "CLASSIFICATION_TYPE": "U", "NORAD_CAT_ID": 57166, "ELEMENT_SET_NO": 999, "REV_AT_EPOCH": 12829, "BSTAR": 2.5680059e-05, "MEAN_MOTION_DOT": 1.6e-07, "MEAN_MOTION_DDOT": 0}, "tle": {"line1": "1 57166U 23091A   25348.93992703  .00000016  00000+0  25680-4 0  9995", "line2": "2 57166  98.6376  42.4408 0003782   2.5521 357.5677 14.24026286128290"}}, "geometry": {"type": "Point", "coordinates": [110.50177254778819, -80.65861249846854]}}, {"type": "Feature", "properties": {"norad_id": 57399, "name": "TIANMU-1 07", "group": "weather", "lat": 46.84114774118105, "lon": 31.430229256576798, "alt_km": 474.0079344837477, "timestamp": "2025-12-15T11:38:36.800898+00:00", "meta": {"OBJECT_NAME": "TIANMU-1 07", "OBJECT_ID": "2023-101A", "EPOCH": "2025-12-14T22:51:52.507584", "MEAN_MOTION": 15.28107784, "ECCENTRICITY": 0.00055246, "INCLINATION": 97.2881, "RA_OF_ASC_NODE": 38.7538, "ARG_OF_PERICENTER": 76.0659, "MEAN_ANOMALY": 284.1195, "EPHEMERIS_TYPE": 0, "CLASSIFICATION_TYPE": "U", "NORAD_CAT_ID": 57399, "ELEMENT_SET_NO": 999, "REV_AT_EPOCH": 13349, "BSTAR": 0.00020976115, "MEAN_MOTION_DOT": 5.678e-05, "MEAN_MOTION_DDOT": 0}, "tle": {"line1": "1 57399U 23101A   25348.95269106  .00005678  00000+0  20976-3 0  9992", "line2": "2 57399  97.2881  38.7538 0005524  76.0659 284.1195 15.28107784133496"}}, "geometry": {"type": "Point", "coordinates": [31.430229256576798, 46.84114774118105]}}, {"type": "Feature", "properties": {"norad_id": 57400, "name": "TIANMU-1 08", "group": "weather", "lat": -48.611948615497155, "lon": -149.2770671421381, "alt_km": 492.99052228704113, "timestamp": "2025-12-15T11:38:36.800908+00:00", "meta": {"OBJECT_NAME": "TIANMU-1 08", "OBJECT_ID": "2023-101B", "EPOCH": "2025-12-14T22:04:18.769152", "MEAN_MOTION": 15.28090564, "ECCENTRICITY": 0.00074657, "INCLINATION": 97.287, "RA_OF_ASC_NODE": 38.5191, "ARG_OF_PERICENTER": 77.84, "MEAN_ANOMALY": 282.3675, "EPHEMERIS_TYPE": 0, "CLASSIFICATION_TYPE": "U", "NORAD_CAT_ID": 57400, "ELEMENT_SET_NO": 999, "REV_AT_EPOCH": 13348, "BSTAR": 0.0001957708, "MEAN_MOTION_DOT": 5.293e-05, "MEAN_MOTION_DDOT": 0}, "tle": {"line1": "1 57400U 23101B   25348.91966168  .00005293  00000+0  19577-3 0  9991", "line2": "2 57400  97.2870  38.5191 0007465  77.8400 282.3675 15.28090564133488"}}, "geometry": {"type": "Point", "coordinates": [-149.2770671421381, -48.611948615497155]}}]}